STARLINK-36708          
1 67713U 26025W   26047.16667824 -.01088499  40217-3 -16981-2 0  9993
2 67713  97.2762 157.5312 0001297  58.2341 236.6603 16.04115948  2451
STARLINK-36702          
1 67714U 26025X   26047.16667824 -.01115458  41985-3 -17601-2 0  9993
2 67714  97.2760 157.5296 0001469  57.2306 234.3371 16.03928107  2187
STARLINK-36718          
1 67715U 26025Y   26047.16667824 -.01089024  40484-3 -16508-2 0  9991
2 67715  97.2761 157.5347 0001197  62.6108 240.0770 16.04596438  2393
STARLINK-36715          
1 67716U 26025Z   26047.16667824 -.01082247  39911-3 -16630-2 0  9991
2 67716  97.2759 157.5332 0001366  59.2032 239.8115 16.04368494  2456
STARLINK-36385          
1 67717U 26025AA  26047.16667824 -.01120288  42201-3 -17933-2 0  9993
2 67717  97.2765 157.5283 0001427  58.8271 228.7881 16.03687292  2453
CZ-2F DEB               
1 67718U 26024E   26047.12329667  .00257778  00000+0  51942-2 0  9996
2 67718  50.3139 123.9798 0263092 195.2569 164.0342 15.16044170  1358
CZ-2F DEB               
1 67719U 26024F   26047.16826651  .00195155  00000+0  50200-2 0  9992
2 67719  49.7912 124.9657 0335487 185.2595 174.4786 14.96823567  1013
CZ-2F DEB               
1 67720U 26024G   26047.18434586  .00192558  00000+0  50816-2 0  9995
2 67720  49.8302 125.0587 0346273 181.9563 178.0044 14.94155398  1336
2026-027A               
1 67746U 26027A   26047.14080347  .00009123  00000+0  46075-3 0  9992
2 67746  97.4876 176.3924 0009146 275.5227  84.4963 15.17277015   599
2026-027B               
1 67747U 26027B   26047.07460030  .00009051  00000+0  45587-3 0  9993
2 67747  97.4871 176.3271 0009323 278.4484  81.5692 15.17377223   582
2027-027C               
1 67748U 27027C   26047.07423705  .00005897  00000+0  29712-3 0  9999
2 67748  97.4882 176.3283 0009774 281.6069  78.4067 15.17511141   583
2026-027D               
1 67749U 26027D   26047.13982009  .00009758  00000+0  48707-3 0  9998
2 67749  97.4878 176.3939 0009565 285.6853  74.3325 15.17667668   544
