CCSDS_OMM_VERS = 2.0
CREATION_DATE  = 
ORIGINATOR     = 

OBJECT_NAME    = STARLINK-36708
OBJECT_ID      = 2026-025W
CENTER_NAME    = EARTH
REF_FRAME      = TEME
TIME_SYSTEM    = UTC
MEAN_ELEMENT_THEORY = SGP/SGP4

EPOCH          = 2026-02-16T04:00:00.999936
MEAN_MOTION    = 16.04115948
ECCENTRICITY   = .0001297
INCLINATION    = 97.2762
RA_OF_ASC_NODE = 157.5312
ARG_OF_PERICENTER = 58.2341
MEAN_ANOMALY   = 236.6603

EPHEMERIS_TYPE = 0
CLASSIFICATION_TYPE = U
NORAD_CAT_ID   = 67713
ELEMENT_SET_NO = 999
REV_AT_EPOCH   = 245
BSTAR          = -.16981E-2
MEAN_MOTION_DOT = -.1088499E-1
MEAN_MOTION_DDOT = .40217E-3

CCSDS_OMM_VERS = 2.0
CREATION_DATE  = 
ORIGINATOR     = 

OBJECT_NAME    = STARLINK-36702
OBJECT_ID      = 2026-025X
CENTER_NAME    = EARTH
REF_FRAME      = TEME
TIME_SYSTEM    = UTC
MEAN_ELEMENT_THEORY = SGP/SGP4

EPOCH          = 2026-02-16T04:00:00.999936
MEAN_MOTION    = 16.03928107
ECCENTRICITY   = .0001469
INCLINATION    = 97.2760
RA_OF_ASC_NODE = 157.5296
ARG_OF_PERICENTER = 57.2306
MEAN_ANOMALY   = 234.3371

EPHEMERIS_TYPE = 0
CLASSIFICATION_TYPE = U
NORAD_CAT_ID   = 67714
ELEMENT_SET_NO = 999
REV_AT_EPOCH   = 218
BSTAR          = -.17601E-2
MEAN_MOTION_DOT = -.1115458E-1
MEAN_MOTION_DDOT = .41985E-3

CCSDS_OMM_VERS = 2.0
CREATION_DATE  = 
ORIGINATOR     = 

OBJECT_NAME    = STARLINK-36718
OBJECT_ID      = 2026-025Y
CENTER_NAME    = EARTH
REF_FRAME      = TEME
TIME_SYSTEM    = UTC
MEAN_ELEMENT_THEORY = SGP/SGP4

EPOCH          = 2026-02-16T04:00:00.999936
MEAN_MOTION    = 16.04596438
ECCENTRICITY   = .0001197
INCLINATION    = 97.2761
RA_OF_ASC_NODE = 157.5347
ARG_OF_PERICENTER = 62.6108
MEAN_ANOMALY   = 240.0770

EPHEMERIS_TYPE = 0
CLASSIFICATION_TYPE = U
NORAD_CAT_ID   = 67715
ELEMENT_SET_NO = 999
REV_AT_EPOCH   = 239
BSTAR          = -.16508E-2
MEAN_MOTION_DOT = -.1089024E-1
MEAN_MOTION_DDOT = .40484E-3

CCSDS_OMM_VERS = 2.0
CREATION_DATE  = 
ORIGINATOR     = 

OBJECT_NAME    = STARLINK-36715
OBJECT_ID      = 2026-025Z
CENTER_NAME    = EARTH
REF_FRAME      = TEME
TIME_SYSTEM    = UTC
MEAN_ELEMENT_THEORY = SGP/SGP4

EPOCH          = 2026-02-16T04:00:00.999936
MEAN_MOTION    = 16.04368494
ECCENTRICITY   = .0001366
INCLINATION    = 97.2759
RA_OF_ASC_NODE = 157.5332
ARG_OF_PERICENTER = 59.2032
MEAN_ANOMALY   = 239.8115

EPHEMERIS_TYPE = 0
CLASSIFICATION_TYPE = U
NORAD_CAT_ID   = 67716
ELEMENT_SET_NO = 999
REV_AT_EPOCH   = 245
BSTAR          = -.1663E-2
MEAN_MOTION_DOT = -.1082247E-1
MEAN_MOTION_DDOT = .39911E-3

CCSDS_OMM_VERS = 2.0
CREATION_DATE  = 
ORIGINATOR     = 

OBJECT_NAME    = STARLINK-36385
OBJECT_ID      = 2026-025AA
CENTER_NAME    = EARTH
REF_FRAME      = TEME
TIME_SYSTEM    = UTC
MEAN_ELEMENT_THEORY = SGP/SGP4

EPOCH          = 2026-02-16T04:00:00.999936
MEAN_MOTION    = 16.03687292
ECCENTRICITY   = .0001427
INCLINATION    = 97.2765
RA_OF_ASC_NODE = 157.5283
ARG_OF_PERICENTER = 58.8271
MEAN_ANOMALY   = 228.7881

EPHEMERIS_TYPE = 0
CLASSIFICATION_TYPE = U
NORAD_CAT_ID   = 67717
ELEMENT_SET_NO = 999
REV_AT_EPOCH   = 245
BSTAR          = -.17933E-2
MEAN_MOTION_DOT = -.1120288E-1
MEAN_MOTION_DDOT = .42201E-3

CCSDS_OMM_VERS = 2.0
CREATION_DATE  = 
ORIGINATOR     = 

OBJECT_NAME    = CZ-2F DEB
OBJECT_ID      = 2026-024E
CENTER_NAME    = EARTH
REF_FRAME      = TEME
TIME_SYSTEM    = UTC
MEAN_ELEMENT_THEORY = SGP/SGP4

EPOCH          = 2026-02-16T02:57:32.832288
MEAN_MOTION    = 15.16044170
ECCENTRICITY   = .0263092
INCLINATION    = 50.3139
RA_OF_ASC_NODE = 123.9798
ARG_OF_PERICENTER = 195.2569
MEAN_ANOMALY   = 164.0342

EPHEMERIS_TYPE = 0
CLASSIFICATION_TYPE = U
NORAD_CAT_ID   = 67718
ELEMENT_SET_NO = 999
REV_AT_EPOCH   = 135
BSTAR          = .51942E-2
MEAN_MOTION_DOT = .257778E-2
MEAN_MOTION_DDOT = 0

CCSDS_OMM_VERS = 2.0
CREATION_DATE  = 
ORIGINATOR     = 

OBJECT_NAME    = CZ-2F DEB
OBJECT_ID      = 2026-024F
CENTER_NAME    = EARTH
REF_FRAME      = TEME
TIME_SYSTEM    = UTC
MEAN_ELEMENT_THEORY = SGP/SGP4

EPOCH          = 2026-02-16T04:02:18.226464
MEAN_MOTION    = 14.96823567
ECCENTRICITY   = .0335487
INCLINATION    = 49.7912
RA_OF_ASC_NODE = 124.9657
ARG_OF_PERICENTER = 185.2595
MEAN_ANOMALY   = 174.4786

EPHEMERIS_TYPE = 0
CLASSIFICATION_TYPE = U
NORAD_CAT_ID   = 67719
ELEMENT_SET_NO = 999
REV_AT_EPOCH   = 101
BSTAR          = .502E-2
MEAN_MOTION_DOT = .195155E-2
MEAN_MOTION_DDOT = 0

CCSDS_OMM_VERS = 2.0
CREATION_DATE  = 
ORIGINATOR     = 

OBJECT_NAME    = CZ-2F DEB
OBJECT_ID      = 2026-024G
CENTER_NAME    = EARTH
REF_FRAME      = TEME
TIME_SYSTEM    = UTC
MEAN_ELEMENT_THEORY = SGP/SGP4

EPOCH          = 2026-02-16T04:25:27.482304
MEAN_MOTION    = 14.94155398
ECCENTRICITY   = .0346273
INCLINATION    = 49.8302
RA_OF_ASC_NODE = 125.0587
ARG_OF_PERICENTER = 181.9563
MEAN_ANOMALY   = 178.0044

EPHEMERIS_TYPE = 0
CLASSIFICATION_TYPE = U
NORAD_CAT_ID   = 67720
ELEMENT_SET_NO = 999
REV_AT_EPOCH   = 133
BSTAR          = .50816E-2
MEAN_MOTION_DOT = .192558E-2
MEAN_MOTION_DDOT = 0

CCSDS_OMM_VERS = 2.0
CREATION_DATE  = 
ORIGINATOR     = 

OBJECT_NAME    = 2026-027A
OBJECT_ID      = 2026-027A
CENTER_NAME    = EARTH
REF_FRAME      = TEME
TIME_SYSTEM    = UTC
MEAN_ELEMENT_THEORY = SGP/SGP4

EPOCH          = 2026-02-16T03:22:45.419808
MEAN_MOTION    = 15.17277015
ECCENTRICITY   = .0009146
INCLINATION    = 97.4876
RA_OF_ASC_NODE = 176.3924
ARG_OF_PERICENTER = 275.5227
MEAN_ANOMALY   = 84.4963

EPHEMERIS_TYPE = 0
CLASSIFICATION_TYPE = U
NORAD_CAT_ID   = 67746
ELEMENT_SET_NO = 999
REV_AT_EPOCH   = 59
BSTAR          = .46075E-3
MEAN_MOTION_DOT = .9123E-4
MEAN_MOTION_DDOT = 0

CCSDS_OMM_VERS = 2.0
CREATION_DATE  = 
ORIGINATOR     = 

OBJECT_NAME    = 2026-027B
OBJECT_ID      = 2026-027B
CENTER_NAME    = EARTH
REF_FRAME      = TEME
TIME_SYSTEM    = UTC
MEAN_ELEMENT_THEORY = SGP/SGP4

EPOCH          = 2026-02-16T01:47:25.465920
MEAN_MOTION    = 15.17377223
ECCENTRICITY   = .0009323
INCLINATION    = 97.4871
RA_OF_ASC_NODE = 176.3271
ARG_OF_PERICENTER = 278.4484
MEAN_ANOMALY   = 81.5692

EPHEMERIS_TYPE = 0
CLASSIFICATION_TYPE = U
NORAD_CAT_ID   = 67747
ELEMENT_SET_NO = 999
REV_AT_EPOCH   = 58
BSTAR          = .45587E-3
MEAN_MOTION_DOT = .9051E-4
MEAN_MOTION_DDOT = 0

CCSDS_OMM_VERS = 2.0
CREATION_DATE  = 
ORIGINATOR     = 

OBJECT_NAME    = 2027-027C
OBJECT_ID      = 2027-027C
CENTER_NAME    = EARTH
REF_FRAME      = TEME
TIME_SYSTEM    = UTC
MEAN_ELEMENT_THEORY = SGP/SGP4

EPOCH          = 2026-02-16T01:46:54.081120
MEAN_MOTION    = 15.17511141
ECCENTRICITY   = .0009774
INCLINATION    = 97.4882
RA_OF_ASC_NODE = 176.3283
ARG_OF_PERICENTER = 281.6069
MEAN_ANOMALY   = 78.4067

EPHEMERIS_TYPE = 0
CLASSIFICATION_TYPE = U
NORAD_CAT_ID   = 67748
ELEMENT_SET_NO = 999
REV_AT_EPOCH   = 58
BSTAR          = .29712E-3
MEAN_MOTION_DOT = .5897E-4
MEAN_MOTION_DDOT = 0

CCSDS_OMM_VERS = 2.0
CREATION_DATE  = 
ORIGINATOR     = 

OBJECT_NAME    = 2026-027D
OBJECT_ID      = 2026-027D
CENTER_NAME    = EARTH
REF_FRAME      = TEME
TIME_SYSTEM    = UTC
MEAN_ELEMENT_THEORY = SGP/SGP4

EPOCH          = 2026-02-16T03:21:20.455776
MEAN_MOTION    = 15.17667668
ECCENTRICITY   = .0009565
INCLINATION    = 97.4878
RA_OF_ASC_NODE = 176.3939
ARG_OF_PERICENTER = 285.6853
MEAN_ANOMALY   = 74.3325

EPHEMERIS_TYPE = 0
CLASSIFICATION_TYPE = U
NORAD_CAT_ID   = 67749
ELEMENT_SET_NO = 999
REV_AT_EPOCH   = 54
BSTAR          = .48707E-3
MEAN_MOTION_DOT = .9758E-4
MEAN_MOTION_DDOT = 0

